KUIPER-00016            
1 63732U 25088J   25342.74738039 -.00002062  00000+0 -24056-3 0  9992
2 63732  51.8981 153.7411 0013835 123.1079 237.1214 14.79938436 33864
KUIPER-00018            
1 63733U 25088K   25342.82734633 -.00000095  00000+0  17091-4 0  9993
2 63733  51.9027 142.3417 0014203 145.7144 214.4738 14.79942818 34038
KUIPER-00019            
1 63734U 25088L   25342.82836096  .00002549  00000+0  36320-3 0  9990
2 63734  51.8996 140.8854 0010409 153.9461 206.2027 14.79937150 34053
KUIPER-00020            
1 63735U 25088M   25342.82465106  .00002889  00000+0  40759-3 0  9999
2 63735  51.9004 144.8826 0009257 135.9537 224.2164 14.79958913 34200
KUIPER-00021            
1 63736U 25088N   25342.89044701  .00001776  00000+0  26185-3 0  9992
2 63736  51.9003 145.5912 0007943 132.4914 227.6720 14.79959284 34033
KUIPER-00023            
1 63737U 25088P   25342.88940744  .00002250  00000+0  32406-3 0  9995
2 63737  51.8992 147.0623 0012409 153.2850 206.8754 14.79938177 34314
KUIPER-00024            
1 63738U 25088Q   25342.82999954  .00003543  00000+0  49609-3 0  9996
2 63738  51.9017 134.8132 0005046 146.0769 214.0517 14.79714303 34604
KUIPER-00025            
1 63739U 25088R   25342.74383277  .00003037  00000+0  42143-3 0  9997
2 63739  51.8987 143.6160 0009585 130.1997 229.9806 14.80514459 34336
